NORAD_CAT_ID,OBJECT_NAME,OBJECT_TYPE,EPOCH,MEAN_MOTION,ECCENTRICITY,INCLINATION,RA_OF_ASC_NODE,ARG_OF_PERICENTER,MEAN_ANOMALY,BSTAR,MEAN_MOTION_DOT,MEAN_MOTION_DDOT,TLE_LINE0,TLE_LINE1,TLE_LINE2,SEMIMAJOR_AXIS,PERIOD,APOGEE,PERIGEE,DECAYED
53892.0,STARLINK-5046,PAYLOAD,2022-11-21 22:00:00,15.37127353,0.000183,53.2167,328.7376,23.5265,65.4547,-0.028639,-0.00964578,0.0,0 STARLINK-5046,1 53892U 22119G   22325.91667824 -.00964578  00000-0 -28639-1 0  9999,2 53892  53.2167 328.7376 0001830  23.5265  65.4547 15.37127353  9528,6832.746,93.681,455.861,453.361,0.0
53892.0,STARLINK-5046,PAYLOAD,2022-11-22 14:00:01,15.35800659,0.0001776999999999,53.2164,325.617,40.4698,138.0887,-0.028775,-0.00931308,0.0,0 STARLINK-5046,1 53892U 22119G   22326.58335648 -.00931308  00000-0 -28775-1 0  9995,2 53892  53.2164 325.6170 0001777  40.4698 138.0887 15.35800659  9621,6836.68,93.762,459.76,457.33,0.0
53892.0,STARLINK-5046,PAYLOAD,2022-11-22 22:00:00,15.35134633,0.0001821,53.2166,324.0566,39.183,182.8967,-0.028692,-0.00910723,0.0,0 STARLINK-5046,1 53892U 22119G   22326.91667824 -.00910723  00000-0 -28692-1 0  9992,2 53892  53.2166 324.0566 0001821  39.1830 182.8967 15.35134633  1303,6838.658,93.803,461.768,459.277,0.0
53892.0,STARLINK-5046,PAYLOAD,2022-11-23 14:00:01,15.33839928,0.0001612,53.2165,320.9452,40.7105,266.173,-0.030286,-0.00921295,0.0,0 STARLINK-5046,1 53892U 22119G   22327.58334491 -.00921295  00000-0 -30286-1 0  9995,2 53892  53.2165 320.9452 0001612  40.7105 266.1730 15.33839928  1303,6842.505,93.882,465.473,463.267,0.0
53892.0,STARLINK-5046,PAYLOAD,2022-11-23 22:00:00,15.33186128,0.0001805,53.2166,319.3897,34.3859,313.7293,-0.030728,-0.00916006,0.0,0 STARLINK-5046,1 53892U 22119G   22327.91667824 -.00916006  00000-0 -30728-1 0  9996,2 53892  53.2166 319.3897 0001805  34.3859 313.7293 15.33186128  9823,6844.451,93.922,467.551,465.08,0.0
53892.0,STARLINK-5046,PAYLOAD,2022-11-24 14:00:01,15.31895064,0.0001945,53.2165,316.2874,30.6003,37.62300000000001,-0.032574,-0.0093087,0.0,0 STARLINK-5046,1 53892U 22119G   22328.58334491 -.00930870  00000-0 -32574-1 0  9997,2 53892  53.2165 316.2874 0001945  30.6003  37.6230 15.31895064  1300,6848.295999999999,94.001,471.49300000000005,468.829,0.0
53892.0,STARLINK-5046,PAYLOAD,2022-11-24 22:00:00,15.31237749,0.0001809,53.2172,314.7367,32.0903,75.0208,-0.032953,-0.00923113,0.0,0 STARLINK-5046,1 53892U 22119G   22328.91667824 -.00923113  00000-0 -32953-1 0  9996,2 53892  53.2172 314.7367 0001809  32.0903  75.0208 15.31237749  9985,6850.255,94.042,473.359,470.881,0.0
53892.0,STARLINK-5046,PAYLOAD,2022-11-25 14:00:01,15.2992745,0.0001757,53.2166,311.6433,40.6342,141.9008,-0.033866,-0.00911654,0.0,0 STARLINK-5046,1 53892U 22119G   22329.58334491 -.00911654  00000-0 -33866-1 0  9992,2 53892  53.2166 311.6433 0001757  40.6342 141.9008 15.29927450  1303,6854.166,94.122,477.235,474.827,0.0
53892.0,STARLINK-5046,PAYLOAD,2022-11-25 22:00:00,15.29286877,0.0001733,53.2168,310.0972,44.3426,174.7237,-0.035076,-0.00936164,0.0,0 STARLINK-5046,1 53892U 22119G   22329.91667824 -.00936164  00000-0 -35076-1 0  9996,2 53892  53.2168 310.0972 0001733  44.3426 174.7237 15.29286877  1303,6856.08,94.162,479.133,476.757,0.0
53892.0,STARLINK-5046,PAYLOAD,2022-11-26 06:00:00,15.28629059,0.0001636999999999,53.2173,308.5557,52.4265,202.3971,-0.0354279999999999,-0.00927206,0.0,0 STARLINK-5046,1 53892U 22119G   22330.25001157 -.00927206  00000-0 -35428-1 0  9994,2 53892  53.2173 308.5557 0001637  52.4265 202.3971 15.28629059 10185,6858.047,94.202,481.034,478.789,0.0
53892.0,STARLINK-5046,PAYLOAD,2022-11-26 14:00:01,15.27989319,0.0001593,53.2168,307.0132,44.5576,245.2336,-0.036849,-0.00944253,0.0,0 STARLINK-5046,1 53892U 22119G   22330.58334491 -.00944253  00000-0 -36849-1 0  9999,2 53892  53.2168 307.0132 0001593  44.5576 245.2336 15.27989319  1302,6859.9609999999975,94.241,482.919,480.733,0.0
53892.0,STARLINK-5046,PAYLOAD,2022-11-26 22:00:00,15.273265900000002,0.0001710999999999,53.217,305.4718,36.3925,287.5937,-0.036795,-0.00925381,0.0,0 STARLINK-5046,1 53892U 22119G   22330.91667824 -.00925381  00000-0 -36795-1 0  9996,2 53892  53.2170 305.4718 0001711  36.3925 287.5937 15.27326590  1308,6861.945,94.282,484.984,482.636,0.0
53892.0,STARLINK-5046,PAYLOAD,2022-11-27 06:00:00,15.26685703,0.0001499,53.2172,303.9348,46.1652,311.2229,-0.038184,-0.00940487,0.0,0 STARLINK-5046,1 53892U 22119G   22331.25001157 -.00940487  00000-0 -38184-1 0  9993,2 53892  53.2172 303.9348 0001499  46.1652 311.2229 15.26685703 10347,6863.865,94.322,486.759,484.701,0.0
53892.0,STARLINK-5046,PAYLOAD,2022-11-27 14:00:01,15.26030228,0.0001681,53.2169,302.397,39.4056,350.611,-0.038718,-0.00935259,0.0,0 STARLINK-5046,1 53892U 22119G   22331.58334491 -.00935259  00000-0 -38718-1 0  9993,2 53892  53.2169 302.3970 0001681  39.4056 350.6110 15.26030228  1301,6865.831,94.362,488.85,486.541,0.0
53892.0,STARLINK-5046,PAYLOAD,2022-11-27 22:00:00,15.25384269,0.0001811,53.2167,300.86,36.7251,25.1312,-0.039672,-0.00939432,0.0,0 STARLINK-5046,1 53892U 22119G   22331.91667824 -.00939432  00000-0 -39672-1 0  9996,2 53892  53.2167 300.8600 0001811  36.7251  25.1312 15.25384269  1308,6867.769,94.402,490.878,488.39,0.0
53892.0,STARLINK-5046,PAYLOAD,2022-11-28 14:00:01,15.24070733,0.0001805,53.217,297.7945,41.9615,81.2401,-0.040606,-0.00925346,0.0,0 STARLINK-5046,1 53892U 22119G   22332.58334491 -.00925346  00000-0 -40606-1 0  9999,2 53892  53.2170 297.7945 0001805  41.9615  81.2401 15.24070733 10548,6871.714,94.484,494.82,492.339,0.0
53892.0,STARLINK-5046,PAYLOAD,2022-11-28 22:00:01,15.23433516,0.0001947,53.2168,296.2622,39.7645,112.9896,-0.042227,-0.00942752,0.0,0 STARLINK-5046,1 53892U 22119G   22332.91668981 -.00942752  00000-0 -42227-1 0  9991,2 53892  53.2168 296.2622 0001947  39.7645 112.9896 15.23433516  1301,6873.63,94.523,496.834,494.157,0.0
53892.0,STARLINK-5046,PAYLOAD,2022-11-29 14:00:01,15.22122832,0.0001757,53.217,293.2057,42.5054,166.899,-0.04342,-0.0093302,0.0,0 STARLINK-5046,1 53892U 22119G   22333.58335648 -.00933020  00000-0 -43420-1 0  9990,2 53892  53.2170 293.2057 0001757  42.5054 166.8990 15.22122832 10698,6877.576,94.605,500.649,498.232,0.0
53892.0,STARLINK-5046,PAYLOAD,2022-11-29 22:00:00,15.21468138,0.0001783,53.2166,291.6783,42.82899999999999,193.6627,-0.043908,-0.00925956,0.0,0 STARLINK-5046,1 53892U 22119G   22333.91667824 -.00925956  00000-0 -43908-1 0  9991,2 53892  53.2166 291.6783 0001783  42.8290 193.6627 15.21468138  1309,6879.5480000000025,94.645,502.64,500.187,0.0
53892.0,STARLINK-5046,PAYLOAD,2022-11-30 14:00:01,15.201635500000002,0.0001753,53.2175,288.6312,39.3762,249.1319,-0.045525,-0.00924041,0.0,0 STARLINK-5046,1 53892U 22119G   22334.58335648 -.00924041  00000-0 -45525-1 0  9992,2 53892  53.2175 288.6312 0001753  39.3762 249.1319 15.20163550  1309,6883.484,94.727,506.556,504.142,0.0
53892.0,STARLINK-5046,PAYLOAD,2022-11-30 22:00:00,15.19510737,0.0001724,53.2176,287.1088,40.3535,272.8941,-0.046172,-0.00919768,0.0,0 STARLINK-5046,1 53892U 22119G   22334.91667824 -.00919768  00000-0 -46172-1 0  9992,2 53892  53.2176 287.1088 0001724  40.3535 272.8941 15.19510737 10891,6885.455,94.767,508.507,506.133,0.0
53892.0,STARLINK-5046,PAYLOAD,2022-12-01 14:00:01,15.18209667,0.0001548,53.2175,284.0699,43.9906,316.515,-0.048122,-0.00922739,0.0,0 STARLINK-5046,1 53892U 22119G   22335.58334491 -.00922739  00000-0 -48122-1 0  9996,2 53892  53.2175 284.0699 0001548  43.9906 316.5150 15.18209667  1310,6889.388000000001,94.849,512.32,510.187,0.0
53892.0,STARLINK-5046,PAYLOAD,2022-12-01 20:00:01,15.17747084,0.0001565999999999,53.2162,282.9296,44.2804,243.1845,-0.05015,-0.00946891,0.0,0 STARLINK-5046,1 53892U 22119G   22335.83335648 -.00946891  00000-0 -50150-1 0  9998,2 53892  53.2162 282.9296 0001566  44.2804 243.1845 15.17747084 11032,6890.788000000001,94.877,513.732,511.574,0.0
53892.0,STARLINK-5046,PAYLOAD,2022-12-01 22:00:00,15.17591675,0.0001644,53.2164,282.551,38.6544,344.2901,-0.051472,-0.00965943,0.0,0 STARLINK-5046,1 53892U 22119G   22335.91667824 -.00965943  00000-0 -51472-1 0  9998,2 53892  53.2164 282.5510 0001644  38.6544 344.2901 15.17591675  1302,6891.259,94.887,514.257,511.991,0.0
53892.0,STARLINK-5046,PAYLOAD,2022-12-02 14:00:01,15.16236991,0.0001973,53.2167,279.5213,34.1579,31.3773,-0.049269,-0.00894702,0.0,0 STARLINK-5046,1 53892U 22119G   22336.58334491 -.00894702  00000-0 -49269-1 0  9998,2 53892  53.2167 279.5213 0001973  34.1579  31.3773 15.16236991  1302,6895.363,94.972,518.5880000000002,515.867,0.0
53892.0,STARLINK-5046,PAYLOAD,2022-12-02 22:00:00,15.15638944,0.0001899,53.2163,278.0079,28.8817,56.7362,-0.054505,-0.00966997,0.0,0 STARLINK-5046,1 53892U 22119G   22336.91667824 -.00966997  00000-0 -54505-1 0  9999,2 53892  53.2163 278.0079 0001899  28.8817  56.7362 15.15638944 11202,6897.176,95.009,520.351,517.732,0.0
53892.0,STARLINK-5046,PAYLOAD,2022-12-03 14:00:01,15.14310976,0.0001729,53.2168,274.9874,40.9102,82.5913,-0.054408,-0.00932197,0.0,0 STARLINK-5046,1 53892U 22119G   22337.58334491 -.00932197  00000-0 -54408-1 0  9991,2 53892  53.2168 274.9874 0001729  40.9102  82.5913 15.14310976 11300,6901.208000000001,95.093,524.266,521.88,0.0
53892.0,STARLINK-5046,PAYLOAD,2022-12-03 22:00:00,15.13662398,0.0001981,53.2164,273.4786,36.3852,104.8771,-0.055618,-0.00935374,0.0,0 STARLINK-5046,1 53892U 22119G   22337.91667824 -.00935374  00000-0 -55618-1 0  9991,2 53892  53.2164 273.4786 0001981  36.3852 104.8771 15.13662398  1309,6903.179,95.133,526.4119999999998,523.677,0.0
53892.0,STARLINK-5046,PAYLOAD,2022-12-04 14:00:01,15.12353782,0.000183,53.2168,270.4671,44.5373,129.9047,-0.057058,-0.00925617,0.0,0 STARLINK-5046,1 53892U 22119G   22338.58334491 -.00925617  00000-0 -57058-1 0  9995,2 53892  53.2168 270.4671 0001830  44.5373 129.9047 15.12353782  1302,6907.161,95.216,530.29,527.762,0.0
